start=new Date('2022-11-07T00:00:00.000Z').valueOf();
sats=[{"CENTER_NAME":"EARTH","REV_AT_EPOCH":"13459","BSTAR":"0.00003452300000","OBJECT_ID":"2020-035E","SEMIMAJOR_AXIS":"6925.374","MEAN_MOTION_DDOT":"0.0000000000000","MEAN_MOTION":"15.06391629","GP_ID":"217062982","COUNTRY_CODE":"US","MEAN_ANOMALY":"240.1251","OBJECT_NAME":"STARLINK-1444","REF_FRAME":"TEME","TLE_LINE1":"1 45661U 20035E   22310.78326850  .00000233  00000-0  34523-4 0  9998","FILE":"3647218","LAUNCH_DATE":"2020-06-04","TLE_LINE2":"2 45661  53.0517 138.5112 0000553 119.9793 240.1251 15.06391629134597","RA_OF_ASC_NODE":"138.5112","APOAPSIS":"547.622","TIME_SYSTEM":"UTC","RCS_SIZE":"LARGE","PERIOD":"95.593","EPOCH":"2022-11-06T18:47:54.398400","OBJECT_TYPE":"PAYLOAD","ECCENTRICITY":"0.00005530","NORAD_CAT_ID":"45661","ELEMENT_SET_NO":"999","PERIAPSIS":"546.856","CLASSIFICATION_TYPE":"U","ARG_OF_PERICENTER":"119.9793","MEAN_ELEMENT_THEORY":"SGP4","DECAY_DATE":null,"MEAN_MOTION_DOT":"0.00000233","INCLINATION":"53.0517","EPHEMERIS_TYPE":"0","SITE":"AFETR"},{"MEAN_ANOMALY":"279.9935","COUNTRY_CODE":"US","TLE_LINE1":"1 45662U 20035F   22310.06820291 -.00000574  00000-0 -19631-4 0  9991","FILE":"3647066","REF_FRAME":"TEME","OBJECT_NAME":"STARLINK-1445","SEMIMAJOR_AXIS":"6925.385","MEAN_MOTION_DDOT":"0.0000000000000","OBJECT_ID":"2020-035F","REV_AT_EPOCH":"13490","BSTAR":"-0.00001963100000","CENTER_NAME":"EARTH","GP_ID":"217052962","MEAN_MOTION":"15.06388090","MEAN_ELEMENT_THEORY":"SGP4","ARG_OF_PERICENTER":"80.1203","CLASSIFICATION_TYPE":"U","PERIAPSIS":"546.335","SITE":"AFETR","EPHEMERIS_TYPE":"0","INCLINATION":"53.0559","MEAN_MOTION_DOT":"-0.00000574","DECAY_DATE":null,"TIME_SYSTEM":"UTC","APOAPSIS":"548.166","RA_OF_ASC_NODE":"141.7185","TLE_LINE2":"2 45662  53.0559 141.7185 0001322  80.1203 279.9935 15.06388090134902","LAUNCH_DATE":"2020-06-04","NORAD_CAT_ID":"45662","ECCENTRICITY":"0.00013220","ELEMENT_SET_NO":"999","OBJECT_TYPE":"PAYLOAD","PERIOD":"95.593","EPOCH":"2022-11-06T01:38:12.731424","RCS_SIZE":"LARGE"},{"MEAN_MOTION_DDOT":"0.0000000000000","SEMIMAJOR_AXIS":"6925.397","OBJECT_ID":"2020-035G","BSTAR":"-0.00006113800000","REV_AT_EPOCH":"13460","CENTER_NAME":"EARTH","GP_ID":"217063401","MEAN_MOTION":"15.06384243","MEAN_ANOMALY":"250.7881","COUNTRY_CODE":"US","FILE":"3647218","TLE_LINE1":"1 45663U 20035G   22310.80170089 -.00001191  00000-0 -61138-4 0  9992","REF_FRAME":"TEME","OBJECT_NAME":"STARLINK-1446","TIME_SYSTEM":"UTC","APOAPSIS":"548.150","RA_OF_ASC_NODE":"138.4088","TLE_LINE2":"2 45663  53.0538 138.4088 0001283 109.3247 250.7881 15.06384243134603","LAUNCH_DATE":"2020-06-04","NORAD_CAT_ID":"45663","ECCENTRICITY":"0.00012830","ELEMENT_SET_NO":"999","OBJECT_TYPE":"PAYLOAD","PERIOD":"95.593","EPOCH":"2022-11-06T19:14:26.956896","RCS_SIZE":"LARGE","MEAN_ELEMENT_THEORY":"SGP4","ARG_OF_PERICENTER":"109.3247","CLASSIFICATION_TYPE":"U","PERIAPSIS":"546.373","SITE":"AFETR","EPHEMERIS_TYPE":"0","INCLINATION":"53.0538","MEAN_MOTION_DOT":"-0.00001191","DECAY_DATE":null},{"GP_ID":"217063406","MEAN_MOTION":"15.06388942","SEMIMAJOR_AXIS":"6925.382","MEAN_MOTION_DDOT":"0.0000000000000","OBJECT_ID":"2020-035J","BSTAR":"-0.00020171000000","REV_AT_EPOCH":"13461","CENTER_NAME":"EARTH","REF_FRAME":"TEME","TLE_LINE1":"1 45665U 20035J   22310.83487825 -.00003284  00000-0 -20171-3 0  9992","FILE":"3647218","OBJECT_NAME":"STARLINK-1448","MEAN_ANOMALY":"251.7148","COUNTRY_CODE":"US","ECCENTRICITY":"0.00015180","ELEMENT_SET_NO":"999","NORAD_CAT_ID":"45665","OBJECT_TYPE":"PAYLOAD","PERIOD":"95.593","EPOCH":"2022-11-06T20:02:13.480800","RCS_SIZE":"LARGE","TIME_SYSTEM":"UTC","APOAPSIS":"548.299","RA_OF_ASC_NODE":"138.2812","TLE_LINE2":"2 45665  53.0551 138.2812 0001518 108.4006 251.7148 15.06388942134615","LAUNCH_DATE":"2020-06-04","SITE":"AFETR","EPHEMERIS_TYPE":"0","INCLINATION":"53.0551","MEAN_MOTION_DOT":"-0.00003284","DECAY_DATE":null,"MEAN_ELEMENT_THEORY":"SGP4","ARG_OF_PERICENTER":"108.4006","CLASSIFICATION_TYPE":"U","PERIAPSIS":"546.196"},{"OBJECT_NAME":"STARLINK-1449","TLE_LINE1":"1 45666U 20035K   22310.04239286 -.00002292  00000-0 -13504-3 0  9992","FILE":"3647066","REF_FRAME":"TEME","COUNTRY_CODE":"US","MEAN_ANOMALY":"264.6646","MEAN_MOTION":"15.06387079","GP_ID":"217053212","BSTAR":"-0.00013504000000","REV_AT_EPOCH":"13489","OBJECT_ID":"2020-035K","CENTER_NAME":"EARTH","SEMIMAJOR_AXIS":"6925.388","MEAN_MOTION_DDOT":"0.0000000000000","MEAN_MOTION_DOT":"-0.00002292","DECAY_DATE":null,"SITE":"AFETR","INCLINATION":"53.0534","EPHEMERIS_TYPE":"0","CLASSIFICATION_TYPE":"U","ARG_OF_PERICENTER":"95.4501","PERIAPSIS":"546.293","MEAN_ELEMENT_THEORY":"SGP4","PERIOD":"95.593","EPOCH":"2022-11-06T01:01:02.743104","RCS_SIZE":"LARGE","ECCENTRICITY":"0.00013870","ELEMENT_SET_NO":"999","NORAD_CAT_ID":"45666","OBJECT_TYPE":"PAYLOAD","TLE_LINE2":"2 45666  53.0534 141.8075 0001387  95.4501 264.6646 15.06387079134893","RA_OF_ASC_NODE":"141.8075","LAUNCH_DATE":"2020-06-04","TIME_SYSTEM":"UTC","APOAPSIS":"548.214"},{"DECAY_DATE":null,"MEAN_MOTION_DOT":"-0.00001913","EPHEMERIS_TYPE":"0","INCLINATION":"53.0561","SITE":"AFETR","PERIAPSIS":"546.301","ARG_OF_PERICENTER":"92.0642","CLASSIFICATION_TYPE":"U","MEAN_ELEMENT_THEORY":"SGP4","RCS_SIZE":"LARGE","PERIOD":"95.593","EPOCH":"2022-11-06T12:13:47.114976","OBJECT_TYPE":"PAYLOAD","NORAD_CAT_ID":"45667","ECCENTRICITY":"0.00013800","ELEMENT_SET_NO":"999","LAUNCH_DATE":"2020-06-04","RA_OF_ASC_NODE":"139.7647","TLE_LINE2":"2 45667  53.0561 139.7647 0001380  92.0642 268.0505 15.06385912134961","APOAPSIS":"548.212","TIME_SYSTEM":"UTC","OBJECT_NAME":"STARLINK-1450","TLE_LINE1":"1 45667U 20035L   22310.50957309 -.00001913  00000-0 -10964-3 0  9993","FILE":"3647066","REF_FRAME":"TEME","COUNTRY_CODE":"US","MEAN_ANOMALY":"268.0505","GP_ID":"217053461","MEAN_MOTION":"15.06385912","CENTER_NAME":"EARTH","OBJECT_ID":"2020-035L","REV_AT_EPOCH":"13496","BSTAR":"-0.00010964000000","MEAN_MOTION_DDOT":"0.0000000000000","SEMIMAJOR_AXIS":"6925.392"},{"DECAY_DATE":null,"MEAN_MOTION_DOT":"-0.00000574","INCLINATION":"53.0546","EPHEMERIS_TYPE":"0","SITE":"AFETR","PERIAPSIS":"546.204","CLASSIFICATION_TYPE":"U","ARG_OF_PERICENTER":"83.1965","MEAN_ELEMENT_THEORY":"SGP4","RCS_SIZE":"LARGE","PERIOD":"95.593","EPOCH":"2022-11-06T13:01:31.629216","OBJECT_TYPE":"PAYLOAD","NORAD_CAT_ID":"45668","ECCENTRICITY":"0.00014890","ELEMENT_SET_NO":"999","LAUNCH_DATE":"2020-06-04","TLE_LINE2":"2 45668  53.0546 139.5929 0001489  83.1965 276.9193 15.06393004134989","RA_OF_ASC_NODE":"139.5929","APOAPSIS":"548.266","TIME_SYSTEM":"UTC","OBJECT_NAME":"STARLINK-1451","TLE_LINE1":"1 45668U 20035M   22310.54272719 -.00000574  00000-0 -19646-4 0  9992","REF_FRAME":"TEME","FILE":"3647066","COUNTRY_CODE":"US","MEAN_ANOMALY":"276.9193","MEAN_MOTION":"15.06393004","GP_ID":"217053713","CENTER_NAME":"EARTH","REV_AT_EPOCH":"13498","BSTAR":"-0.00001964600000","OBJECT_ID":"2020-035M","SEMIMAJOR_AXIS":"6925.370","MEAN_MOTION_DDOT":"0.0000000000000"},{"MEAN_ELEMENT_THEORY":"SGP4","ARG_OF_PERICENTER":"102.9530","CLASSIFICATION_TYPE":"U","PERIAPSIS":"546.303","SITE":"AFETR","EPHEMERIS_TYPE":"0","INCLINATION":"53.0544","MEAN_MOTION_DOT":"-0.00001968","DECAY_DATE":null,"TIME_SYSTEM":"UTC","APOAPSIS":"548.197","RA_OF_ASC_NODE":"140.8499","TLE_LINE2":"2 45669  53.0544 140.8499 0001367 102.9530 257.1612 15.06388097134936","LAUNCH_DATE":"2020-06-04","ECCENTRICITY":"0.00013670","NORAD_CAT_ID":"45669","ELEMENT_SET_NO":"999","OBJECT_TYPE":"PAYLOAD","EPOCH":"2022-11-06T06:14:12.025824","PERIOD":"95.593","RCS_SIZE":"LARGE","MEAN_ANOMALY":"257.1612","COUNTRY_CODE":"US","TLE_LINE1":"1 45669U 20035N   22310.25986141 -.00001968  00000-0 -11329-3 0  9999","FILE":"3647066","REF_FRAME":"TEME","OBJECT_NAME":"STARLINK-1452","SEMIMAJOR_AXIS":"6925.385","MEAN_MOTION_DDOT":"0.0000000000000","OBJECT_ID":"2020-035N","REV_AT_EPOCH":"13493","BSTAR":"-0.00011329000000","CENTER_NAME":"EARTH","GP_ID":"217053964","MEAN_MOTION":"15.06388097"},{"DECAY_DATE":null,"MEAN_MOTION_DOT":"0.00003254","EPHEMERIS_TYPE":"0","INCLINATION":"53.0523","SITE":"AFETR","PERIAPSIS":"546.187","ARG_OF_PERICENTER":"102.0727","CLASSIFICATION_TYPE":"U","MEAN_ELEMENT_THEORY":"SGP4","RCS_SIZE":"LARGE","EPOCH":"2022-11-06T10:48:51.170400","PERIOD":"95.592","OBJECT_TYPE":"PAYLOAD","ECCENTRICITY":"0.00014570","ELEMENT_SET_NO":"999","NORAD_CAT_ID":"45670","LAUNCH_DATE":"2020-06-04","RA_OF_ASC_NODE":"110.0032","TLE_LINE2":"2 45670  53.0523 110.0032 0001457 102.0727 258.0425 15.06405757135279","APOAPSIS":"548.205","TIME_SYSTEM":"UTC","OBJECT_NAME":"STARLINK-1453","REF_FRAME":"TEME","TLE_LINE1":"1 45670U 20035P   22310.45059225  .00003254  00000-0  23721-3 0  9994","FILE":"3647066","COUNTRY_CODE":"US","MEAN_ANOMALY":"258.0425","GP_ID":"217052713","MEAN_MOTION":"15.06405757","CENTER_NAME":"EARTH","OBJECT_ID":"2020-035P","REV_AT_EPOCH":"13527","BSTAR":"0.00023721000000","SEMIMAJOR_AXIS":"6925.331","MEAN_MOTION_DDOT":"0.0000000000000"},{"PERIAPSIS":"546.185","ARG_OF_PERICENTER":"92.0461","CLASSIFICATION_TYPE":"U","MEAN_ELEMENT_THEORY":"SGP4","DECAY_DATE":null,"MEAN_MOTION_DOT":"0.00000322","EPHEMERIS_TYPE":"0","INCLINATION":"53.0545","SITE":"AFETR","LAUNCH_DATE":"2020-06-04","RA_OF_ASC_NODE":"138.4513","TLE_LINE2":"2 45671  53.0545 138.4513 0001539  92.0461 268.0705 15.06387865134603","APOAPSIS":"548.317","TIME_SYSTEM":"UTC","RCS_SIZE":"LARGE","PERIOD":"95.593","EPOCH":"2022-11-06T19:03:49.074336","OBJECT_TYPE":"PAYLOAD","ECCENTRICITY":"0.00015390","NORAD_CAT_ID":"45671","ELEMENT_SET_NO":"999","COUNTRY_CODE":"US","MEAN_ANOMALY":"268.0705","OBJECT_NAME":"STARLINK-1454","REF_FRAME":"TEME","TLE_LINE1":"1 45671U 20035Q   22310.79431799  .00000322  00000-0  40520-4 0  9992","FILE":"3647204","CENTER_NAME":"EARTH","OBJECT_ID":"2020-035Q","BSTAR":"0.00004052000000","REV_AT_EPOCH":"13460","MEAN_MOTION_DDOT":"0.0000000000000","SEMIMAJOR_AXIS":"6925.386","GP_ID":"217063409","MEAN_MOTION":"15.06387865"}];
